MEAN_MOTION;ECCENTRICITY;INCLINATION;RA_OF_ASC_NODE;ARG_OF_PERICENTER;MEAN_ANOMALY;BSTAR;MEAN_MOTION_DOT;MEAN_MOTION_DDOT;TYPE
14.32740678;0.0001981;44.9984;147.44;12.6813;347.4083;4.5504E-5;-1.6E-7;0;Orbcomm
14.32740783;0.0001946;44.9983;145.1454;15.2044;344.8861;4.5733E-5;-1.5E-7;0;Orbcomm
14.32741011;0.0001886;44.9983;141.2117;19.4352;340.6565;5.1099E-5;0;0;Orbcomm
14.32741037;0.0001882;44.9983;140.5561;20.0526;340.0393;5.1284E-5;0;0;Orbcomm
14.32741294;0.000182;44.9982;136.2945;24.746;335.3473;5.6677E-5;1.5E-7;0;Orbcomm
14.32741294;0.000182;44.9982;136.2945;24.746;335.3473;5.6677E-5;1.5E-7;0;Orbcomm
14.32741669;0.0001755;44.9982;131.7051;30.192;329.9027;6.38E-5;3.5E-7;0;Orbcomm
14.32742081;0.0001696;44.9982;127.1158;35.7286;324.3674;6.7496E-5;4.5E-7;0;Orbcomm
14.32742226;0.000167;44.9983;125.1489;38.0581;322.0383;6.5361E-5;3.9E-7;0;Orbcomm
14.32742661;0.0001614;44.9983;120.5596;43.9071;316.1903;6.6166E-5;4.1E-7;0;Orbcomm
14.3274277;0.0001594;44.9983;119.2483;45.7043;314.3934;6.6457E-5;4.2E-7;0;Orbcomm
14.32743026;0.0001564;44.9984;115.9703;49.8867;310.2116;6.3364E-5;3.4E-7;0;Orbcomm
14.32743323;0.0001517;44.9984;111.0532;56.6584;303.4407;5.7283E-5;1.7E-7;0;Orbcomm
14.32743411;0.0001508;44.9984;110.0697;58.2984;301.8009;5.759E-5;1.8E-7;0;Orbcomm
14.32743543;0.0001501;44.9984;108.4307;60.6283;299.4712;5.8703E-5;2.1E-7;0;Orbcomm
14.3274377;0.000147;44.9984;105.1525;65.4661;294.6338;5.8934E-5;2.1E-7;0;Orbcomm
14.32744015;0.0001455;44.9984;101.8744;69.9737;290.1265;6.2631E-5;3.2E-7;0;Orbcomm
14.32744189;0.0001441;44.9984;98.924;75.2624;284.8382;6.365E-5;3.4E-7;0;Orbcomm
14.32744309;0.0001429;44.9984;96.9571;78.3362;281.7644;6.4238E-5;3.6E-7;0;Orbcomm
14.32744468;0.0001427;44.9984;94.3345;82.7418;277.359;6.4084E-5;3.6E-7;0;Orbcomm
14.32744576;0.0001419;44.9984;92.6954;85.5853;274.5155;6.3091E-5;3.3E-7;0;Orbcomm
14.32744597;0.0001418;44.9984;92.0397;86.6834;273.4174;6.2471E-5;3.1E-7;0;Orbcomm
14.32744787;0.0001424;44.9984;89.4173;90.8905;269.2104;6.1256E-5;2.8E-7;0;Orbcomm
14.32744912;0.0001422;44.9985;87.4503;94.0681;266.0327;6.0683E-5;2.6E-7;0;Orbcomm
14.32745012;0.0001426;44.9985;86.4669;95.7796;264.3212;6.0822E-5;2.7E-7;0;Orbcomm
14.32745138;0.0001436;44.9986;84.8279;97.9053;262.1956;6.1315E-5;2.8E-7;0;Orbcomm
14.32745288;0.0001436;44.9986;82.8609;101.2201;258.8806;6.111E-5;2.7E-7;0;Orbcomm
14.3274554;0.0001461;44.9988;77.9438;108.398;251.7025;5.2815E-5;5.0E-8;0;Orbcomm
14.32745634;0.000148;44.9989;75.6492;112.0818;248.0185;4.7126E-5;-1.1E-7;0;Orbcomm
14.32745762;0.0001487;44.999;73.3546;115.9356;244.1644;4.5303E-5;-1.6E-7;0;Orbcomm
14.32746206;0.0001525;44.9992;69.0931;122.6471;237.4523;5.6046E-5;1.3E-7;0;Orbcomm
14.32746228;0.0001529;44.9992;68.7653;123.1042;236.9951;5.6176E-5;1.4E-7;0;Orbcomm
14.32746897;0.0001577;44.9993;64.1761;129.4125;230.6861;7.9904E-5;7.9E-7;0;Orbcomm
14.32747356;0.0001636;44.9994;59.5869;135.1269;224.9709;8.7395E-5;1.0E-6;0;Orbcomm
14.32747798;0.0001703;44.9995;54.6698;141.6512;218.4456;8.6895E-5;9.8E-7;0;Orbcomm
14.3274789;0.0001728;44.9995;53.3586;143.1547;216.9418;8.4765E-5;9.2E-7;0;Orbcomm
14.32747907;0.0001734;44.9995;53.0309;143.506;216.5904;8.3515E-5;8.9E-7;0;Orbcomm
14.32748154;0.0001773;44.9996;50.0805;147.3572;212.7384;8.0296E-5;8.0E-7;0;Orbcomm
14.32748317;0.0001814;44.9996;47.786;149.8468;210.2483;7.5328E-5;6.6E-7;0;Orbcomm
14.3274857;0.0001854;44.9997;45.1635;153.0645;207.0297;7.3782E-5;6.2E-7;0;Orbcomm
14.32749072;0.0001922;44.9998;40.9021;158.0153;202.0776;7.6549E-5;7.0E-7;0;Orbcomm
14.32749116;0.0001929;44.9998;40.5743;158.2459;201.847;7.6609E-5;7.0E-7;0;Orbcomm
14.32749682;0.0002;45;35.9852;163.4595;196.6316;8.1379E-5;8.3E-7;0;Orbcomm
14.32750293;0.0002088;45.0002;31.0682;168.4587;191.6308;8.8693E-5;1.03E-6;0;Orbcomm
14.32750469;0.0002105;45.0002;29.7571;169.7523;190.3366;9.2187E-5;1.13E-6;0;Orbcomm
14.32750805;0.0002162;45.0003;26.4791;173.1013;186.9864;9.2629E-5;1.14E-6;0;Orbcomm
14.32751209;0.0002223;45.0003;22.5456;176.947;183.139;9.6048E-5;1.23E-6;0;Orbcomm
14.32751281;0.0002236;45.0003;21.89;177.5267;182.5591;9.5947E-5;1.23E-6;0;Orbcomm
14.32751687;0.0002318;45.0003;17.3009;181.853;178.2308;9.4169E-5;1.18E-6;0;Orbcomm
14.32751719;0.0002323;45.0003;16.9731;182.1632;177.9204;9.4031E-5;1.18E-6;0;Orbcomm
14.32752228;0.0002402;45.0002;12.384;186.3927;173.6889;9.353E-5;1.16E-6;0;Orbcomm
14.32752353;0.000242;45.0002;11.4006;187.2034;172.8778;9.4541E-5;1.19E-6;0;Orbcomm
14.32752785;0.0002476;45.0001;7.7949;190.5536;169.5258;9.2573E-5;1.14E-6;0;Orbcomm
14.32752947;0.0002499;45.0001;6.4837;191.6596;168.4193;9.2484E-5;1.14E-6;0;Orbcomm
14.32753298;0.0002549;45.0001;3.5334;194.3866;165.6908;9.0712E-5;1.09E-6;0;Orbcomm
14.32753903;0.0002661;45.0001;358.2886;198.3212;161.7538;8.7785E-5;1.01E-6;0;Orbcomm
14.32754323;0.0002737;45;353.6993;202.0884;157.9844;8.4732E-5;9.2E-7;0;Orbcomm
14.32754605;0.0002798;45;349.4378;205.5384;154.5324;7.8449E-5;7.5E-7;0;Orbcomm
14.32754731;0.0002811;45;348.1267;206.6081;153.4621;8.048E-5;8.1E-7;0;Orbcomm
14.32754884;0.000287;44.9999;344.8486;209.4224;150.6461;7.4765E-5;6.5E-7;0;Orbcomm
14.32754998;0.000289;44.9999;343.2097;210.7125;149.3552;7.5403E-5;6.7E-7;0;Orbcomm
14.32755101;0.0002946;44.9998;340.2594;213.0854;146.9808;7.0094E-5;5.2E-7;0;Orbcomm
14.32755333;0.0003;44.9998;336.6536;215.929;144.1354;6.8976E-5;4.9E-7;0;Orbcomm
14.32755399;0.0003001;44.9997;335.6702;216.7124;143.3517;6.7534E-5;4.5E-7;0;Orbcomm
14.32755719;0.0003063;44.9996;331.081;220.3272;139.7347;6.4069E-5;3.6E-7;0;Orbcomm
14.32756004;0.0003108;44.9995;327.1474;223.6497;136.4103;6.1864E-5;3.0E-7;0;Orbcomm
14.3275606;0.0003119;44.9994;326.4918;224.0458;136.0139;6.0795E-5;2.7E-7;0;Orbcomm
14.32756174;0.0003134;44.9994;324.8529;225.2417;134.8175;5.8922E-5;2.1E-7;0;Orbcomm
14.32756531;0.0003202;44.9993;320.5913;228.157;131.9003;5.8535E-5;2.0E-7;0;Orbcomm
14.32756682;0.000323;44.9993;318.6244;229.7649;130.2914;5.7571E-5;1.8E-7;0;Orbcomm
14.32756758;0.0003247;44.9992;317.6409;230.4632;129.5927;5.8632E-5;2.1E-7;0;Orbcomm
14.32756893;0.0003267;44.9992;316.0019;231.4136;128.6418;5.9332E-5;2.3E-7;0;Orbcomm
14.32757154;0.0003316;44.9991;313.0515;233.639;126.415;6.2776E-5;3.2E-7;0;Orbcomm
14.32757299;0.0003348;44.9991;311.4124;234.7776;125.2757;6.4865E-5;3.8E-7;0;Orbcomm
14.32757619;0.0003401;44.9991;307.1509;238.1015;121.95;6.8124E-5;4.7E-7;0;Orbcomm
14.32757649;0.0003401;44.9991;306.8231;238.4691;121.5823;6.919E-5;5.0E-7;0;Orbcomm
14.32757987;0.0003455;44.999;302.2336;241.8625;118.1873;7.2402E-5;5.9E-7;0;Orbcomm
14.3275801;0.0003458;44.999;301.9058;242.0985;117.9511;7.2489E-5;5.9E-7;0;Orbcomm
14.32758264;0.0003504;44.999;297.3164;245.515;114.5331;6.8652E-5;4.8E-7;0;Orbcomm
14.32758277;0.000351;44.999;296.9887;245.7114;114.3365;6.7649E-5;4.5E-7;0;Orbcomm
14.32758424;0.0003543;44.999;294.0383;247.799;112.248;6.2095E-5;3.0E-7;0;Orbcomm
14.32758593;0.0003578;44.9989;289.7768;251.0642;108.9816;5.114E-5;0;0;Orbcomm
14.32758677;0.0003587;44.9989;288.1378;252.2277;107.8178;4.8089E-5;-8.0E-8;0;Orbcomm
14.3275888;0.0003618;44.9989;285.1875;254.4111;105.6336;4.5823E-5;-1.5E-7;0;Orbcomm
14.32758977;0.0003623;44.9989;283.5485;255.6071;104.4373;4.417E-5;-1.9E-7;0;Orbcomm
14.32759244;0.0003652;44.9989;280.2704;258.1039;101.9398;4.4013E-5;-2.0E-7;0;Orbcomm
14.32759305;0.0003655;44.9989;279.2871;258.821;101.2226;4.4192E-5;-1.9E-7;0;Orbcomm
14.32759483;0.0003676;44.9989;276.9924;260.5463;99.4967;4.5288E-5;-1.6E-7;0;Orbcomm
14.32759697;0.0003687;44.9989;275.3533;261.6257;98.4171;5.0553E-5;-2.0E-8;0;Orbcomm
14.32759914;0.0003679;44.9988;273.7143;263.1155;96.9272;5.7698E-5;1.8E-7;0;Orbcomm
14.32760179;0.0003701;44.9988;270.7639;265.1532;94.8891;6.207E-5;3.0E-7;0;Orbcomm
14.32760407;0.0003703;44.9988;269.1249;266.5966;93.4457;6.9833E-5;5.1E-7;0;Orbcomm
14.32760791;0.0003721;44.9987;264.8633;269.7384;90.3036;7.7187E-5;7.2E-7;0;Orbcomm
14.3276083;0.0003723;44.9987;264.5355;269.9767;90.0652;7.7969E-5;7.4E-7;0;Orbcomm
14.32761144;0.0003737;44.9987;259.9461;273.4539;86.588;7.7622E-5;7.3E-7;0;Orbcomm
14.32761571;0.0003751;44.9987;253.7176;278.1909;81.8511;7.0517E-5;5.3E-7;0;Orbcomm
14.32761749;0.000375;44.9987;251.423;279.7963;80.246;6.9031E-5;4.9E-7;0;Orbcomm
14.32761979;0.0003748;44.9987;247.4892;282.8354;77.2073;5.993E-5;2.4E-7;0;Orbcomm
14.32762092;0.000375;44.9987;245.8502;284.0799;75.9631;5.7931E-5;1.9E-7;0;Orbcomm
14.32762301;0.0003744;44.9987;242.5721;286.5309;73.5126;5.3185E-5;6.0E-8;0;Orbcomm
14.32762457;0.0003743;44.9987;241.261;287.5949;72.4488;5.591E-5;1.3E-7;0;Orbcomm
14.32762763;0.0003737;44.9987;237.6551;290.3106;69.7338;5.643E-5;1.5E-7;0;Orbcomm
14.32762772;0.0003734;44.9987;236.9995;290.8718;69.1728;5.3889E-5;8.0E-8;0;Orbcomm
14.32762952;0.0003737;44.9986;234.7049;292.6104;67.4347;5.5056E-5;1.1E-7;0;Orbcomm
14.3276322;0.000372;44.9986;232.0825;294.685;65.3609;5.8997E-5;2.2E-7;0;Orbcomm
14.32763441;0.0003716;44.9985;229.7878;296.4812;63.5653;6.4205E-5;3.6E-7;0;Orbcomm
14.32763734;0.00037;44.9984;227.4932;298.2923;61.7549;7.2046E-5;5.8E-7;0;Orbcomm
14.32764079;0.0003686;44.9983;224.2151;300.8099;59.2384;7.9115E-5;7.7E-7;0;Orbcomm
14.32764146;0.0003678;44.9983;222.9039;301.9127;58.1361;7.7502E-5;7.3E-7;0;Orbcomm
14.32764598;0.0003651;44.9981;218.3146;305.5737;54.4769;8.1112E-5;8.2E-7;0;Orbcomm
14.32765057;0.0003618;44.998;213.7252;309.38;50.6726;8.0723E-5;8.1E-7;0;Orbcomm
14.32765267;0.0003607;44.998;211.4305;311.2069;48.8465;7.8953E-5;7.7E-7;0;Orbcomm
14.32765543;0.0003583;44.998;208.808;313.4452;46.6096;7.6832E-5;7.1E-7;0;Orbcomm
14.3276588;0.0003551;44.998;205.2021;316.3416;43.7149;7.3171E-5;6.1E-7;0;Orbcomm
14.32765985;0.0003541;44.9979;204.2187;317.2012;42.8558;7.2602E-5;5.9E-7;0;Orbcomm
14.32766374;0.0003506;44.9979;200.285;320.4133;39.6457;7.1184E-5;5.5E-7;0;Orbcomm
14.32766433;0.00035;44.9979;199.6294;320.9687;39.0906;7.0511E-5;5.3E-7;0;Orbcomm
14.32766729;0.0003451;44.9979;195.04;324.8978;35.164;6.4308E-5;3.6E-7;0;Orbcomm
14.32766822;0.0003416;44.9978;192.4174;327.0607;33.0026;5.8445E-5;2.0E-7;0;Orbcomm
14.32766854;0.0003399;44.9978;190.7784;328.5467;31.5176;5.4873E-5;1.0E-7;0;Orbcomm
